FLOCK 4G-3              
1 62639U 25009AG  26068.80174065  .00011494  00000+0  43389-3 0  9993
2 62639  97.4062 151.4068 0001320 293.2042  66.9058 15.27179310 63727
STARLINK-36126          
1 66866U 25281U   26067.20398657  .00021657  00000+0  79339-3 0  9995
2 66866  43.0000 352.2644 0001142 275.0337  85.0384 15.27614315 15944
